LEMUR-2-JK0903EM1407    
1 58336U 23174CJ  26073.71844587  .00033934  00000+0  67194-3 0  9995
2 58336  97.3914 161.9004 0005942  98.3263 261.8661 15.46985549131104
LEMUR-2-MJR092620       
1 58340U 23174CN  26073.89313517  .00015875  00000+0  37011-3 0  9992
2 58340  97.3981 162.3996 0008213  99.9339 260.2836 15.42296036131102
LEMUR-2-NIMBUS2000      
1 58899U 24022A   26073.83512714  .00022755  00000+0  62920-3 0  9990
2 58899  97.4229 282.7977 0010694  97.0663 263.1798 15.36976749117762
LEMUR-2-VALHALLA        
1 58900U 24022B   26073.81508363  .00023779  00000+0  66226-3 0  9996
2 58900  97.4228 282.8090 0011234  93.1655 267.0875 15.36736522117762
LEMUR-2-OBA-NI-JESU     
1 58902U 24022D   26073.84317199  .00131926  00000+0  12446-2 0  9994
2 58902  97.4059 292.1692 0004603  55.1041 305.0651 15.66615376118400
LEMUR-2-CAEL            
1 58903U 24022E   26073.83396482  .00022029  00000+0  59190-3 0  9997
2 58903  97.4212 283.6097 0009443  78.7120 281.5185 15.37885098117825
LEMUR-2-JOHNNYTRUONG    
1 59146U 24043BA  26073.93476001  .00045685  00000+0  71589-3 0  9996
2 59146  97.5262 220.3601 0005418 167.5481 192.5907 15.53572327113370
LEMUR-2-TOMATOKECHUP    
1 60471U 24149D   26073.71557757  .00026219  00000+0  79863-3 0  9995
2 60471  97.3843 155.6572 0001806 174.1260 186.0005 15.33959476 87671
LEMUR-2-STELLA          
1 60533U 24149BT  26073.69809719  .00018660  00000+0  11623-2 0  9999
2 60533  97.6771 155.8903 0001221  93.1955 266.9414 15.09620481 86232
LEMUR-2-MARHISYAM       
1 60536U 24149BW  26073.71338358  .00018409  00000+0  11611-2 0  9999
2 60536  97.6907 156.2514 0003132  97.2313 262.9271 15.09162117 86228
LEMUR-2-AHMED-ASRAR     
1 60576U 24149DN  26073.70118264  .00017782  00000+0  10808-2 0  9994
2 60576  97.7031 157.9840 0001239   2.9267 357.1969 15.10527653 86298
LEMUR-2-LLOYD           
1 60577U 24149DP  26073.70467808  .00016713  00000+0  11089-2 0  9991
2 60577  97.6782 154.9118 0005112 113.2327 246.9439 15.07312266 86153
LEMUR-2-SQUIRRELCOMM    
1 60578U 24149DQ  26073.94328831  .00008917  00000+0  61593-3 0  9993
2 60578  97.6758 155.2252 0005838  29.4272 330.7283 15.05975841 86210
LEMUR-2-SIERRINI        
1 60579U 24149DR  26073.71671886  .00018078  00000+0  11505-2 0  9996
2 60579  97.6863 156.0372 0006568 136.5984 223.5762 15.08824117 86203
LEMUR-2-WILSON          
1 62694U 25009CP  26073.71891334  .00003154  00000+0  29570-3 0  9995
2 62694  97.7071 153.8587 0003296  21.7965 338.3395 14.94717561 63241
LEMUR-2-STAR-FOX        
1 62696U 25009CR  26073.67931411  .00014150  00000+0  11118-2 0  9999
2 62696  97.7033 156.0798 0002996 143.2152 216.9279 15.00990241 63376
