[{"OBJECT_NAME":"LEMUR-2-JK0903EM1407","OBJECT_ID":"2023-174CJ","EPOCH":"2026-03-14T17:14:33.723168","MEAN_MOTION":15.46985549,"ECCENTRICITY":0.0005942,"INCLINATION":97.3914,"RA_OF_ASC_NODE":161.9004,"ARG_OF_PERICENTER":98.3263,"MEAN_ANOMALY":261.8661,"EPHEMERIS_TYPE":0,"CLASSIFICATION_TYPE":"U","NORAD_CAT_ID":58336,"ELEMENT_SET_NO":999,"REV_AT_EPOCH":13110,"BSTAR":0.00067194046,"MEAN_MOTION_DOT":0.00033934,"MEAN_MOTION_DDOT":0},{"OBJECT_NAME":"LEMUR-2-MJR092620","OBJECT_ID":"2023-174CN","EPOCH":"2026-03-14T21:26:06.878688","MEAN_MOTION":15.42296036,"ECCENTRICITY":0.00082131,"INCLINATION":97.3981,"RA_OF_ASC_NODE":162.3996,"ARG_OF_PERICENTER":99.9339,"MEAN_ANOMALY":260.2836,"EPHEMERIS_TYPE":0,"CLASSIFICATION_TYPE":"U","NORAD_CAT_ID":58340,"ELEMENT_SET_NO":999,"REV_AT_EPOCH":13110,"BSTAR":0.00037010613,"MEAN_MOTION_DOT":0.00015875,"MEAN_MOTION_DDOT":0},{"OBJECT_NAME":"LEMUR-2-NIMBUS2000","OBJECT_ID":"2024-022A","EPOCH":"2026-03-14T20:02:34.984896","MEAN_MOTION":15.36976749,"ECCENTRICITY":0.00106944,"INCLINATION":97.4229,"RA_OF_ASC_NODE":282.7977,"ARG_OF_PERICENTER":97.0663,"MEAN_ANOMALY":263.1798,"EPHEMERIS_TYPE":0,"CLASSIFICATION_TYPE":"U","NORAD_CAT_ID":58899,"ELEMENT_SET_NO":999,"REV_AT_EPOCH":11776,"BSTAR":0.00062919698,"MEAN_MOTION_DOT":0.00022755,"MEAN_MOTION_DDOT":0},{"OBJECT_NAME":"LEMUR-2-VALHALLA","OBJECT_ID":"2024-022B","EPOCH":"2026-03-14T19:33:43.225632","MEAN_MOTION":15.36736522,"ECCENTRICITY":0.0011234,"INCLINATION":97.4228,"RA_OF_ASC_NODE":282.809,"ARG_OF_PERICENTER":93.1655,"MEAN_ANOMALY":267.0875,"EPHEMERIS_TYPE":0,"CLASSIFICATION_TYPE":"U","NORAD_CAT_ID":58900,"ELEMENT_SET_NO":999,"REV_AT_EPOCH":11776,"BSTAR":0.00066225978,"MEAN_MOTION_DOT":0.00023779,"MEAN_MOTION_DDOT":0},{"OBJECT_NAME":"LEMUR-2-OBA-NI-JESU","OBJECT_ID":"2024-022D","EPOCH":"2026-03-14T20:14:10.059936","MEAN_MOTION":15.66615376,"ECCENTRICITY":0.00046039,"INCLINATION":97.4059,"RA_OF_ASC_NODE":292.1692,"ARG_OF_PERICENTER":55.1041,"MEAN_ANOMALY":305.0651,"EPHEMERIS_TYPE":0,"CLASSIFICATION_TYPE":"U","NORAD_CAT_ID":58902,"ELEMENT_SET_NO":999,"REV_AT_EPOCH":11840,"BSTAR":0.001244642,"MEAN_MOTION_DOT":0.00131926,"MEAN_MOTION_DDOT":0},{"OBJECT_NAME":"LEMUR-2-CAEL","OBJECT_ID":"2024-022E","EPOCH":"2026-03-14T20:00:54.560448","MEAN_MOTION":15.37885098,"ECCENTRICITY":0.0009443,"INCLINATION":97.4212,"RA_OF_ASC_NODE":283.6097,"ARG_OF_PERICENTER":78.712,"MEAN_ANOMALY":281.5185,"EPHEMERIS_TYPE":0,"CLASSIFICATION_TYPE":"U","NORAD_CAT_ID":58903,"ELEMENT_SET_NO":999,"REV_AT_EPOCH":11782,"BSTAR":0.00059190427,"MEAN_MOTION_DOT":0.00022029,"MEAN_MOTION_DDOT":0},{"OBJECT_NAME":"LEMUR-2-JOHNNYTRUONG","OBJECT_ID":"2024-043BA","EPOCH":"2026-03-14T22:26:03.264864","MEAN_MOTION":15.53572327,"ECCENTRICITY":0.00054182,"INCLINATION":97.5262,"RA_OF_ASC_NODE":220.3601,"ARG_OF_PERICENTER":167.5481,"MEAN_ANOMALY":192.5907,"EPHEMERIS_TYPE":0,"CLASSIFICATION_TYPE":"U","NORAD_CAT_ID":59146,"ELEMENT_SET_NO":999,"REV_AT_EPOCH":11337,"BSTAR":0.00071588701,"MEAN_MOTION_DOT":0.00045685,"MEAN_MOTION_DDOT":0},{"OBJECT_NAME":"LEMUR-2-TOMATOKECHUP","OBJECT_ID":"2024-149D","EPOCH":"2026-03-14T17:10:25.902048","MEAN_MOTION":15.33959476,"ECCENTRICITY":0.00018061,"INCLINATION":97.3843,"RA_OF_ASC_NODE":155.6572,"ARG_OF_PERICENTER":174.126,"MEAN_ANOMALY":186.0005,"EPHEMERIS_TYPE":0,"CLASSIFICATION_TYPE":"U","NORAD_CAT_ID":60471,"ELEMENT_SET_NO":999,"REV_AT_EPOCH":8767,"BSTAR":0.00079863182,"MEAN_MOTION_DOT":0.00026219,"MEAN_MOTION_DDOT":0},{"OBJECT_NAME":"LEMUR-2-STELLA","OBJECT_ID":"2024-149BT","EPOCH":"2026-03-14T16:45:15.597216","MEAN_MOTION":15.09620481,"ECCENTRICITY":0.00012213,"INCLINATION":97.6771,"RA_OF_ASC_NODE":155.8903,"ARG_OF_PERICENTER":93.1955,"MEAN_ANOMALY":266.9414,"EPHEMERIS_TYPE":0,"CLASSIFICATION_TYPE":"U","NORAD_CAT_ID":60533,"ELEMENT_SET_NO":999,"REV_AT_EPOCH":8623,"BSTAR":0.0011623077,"MEAN_MOTION_DOT":0.0001866,"MEAN_MOTION_DDOT":0},{"OBJECT_NAME":"LEMUR-2-MARHISYAM","OBJECT_ID":"2024-149BW","EPOCH":"2026-03-14T17:07:16.341312","MEAN_MOTION":15.09162117,"ECCENTRICITY":0.00031329,"INCLINATION":97.6907,"RA_OF_ASC_NODE":156.2514,"ARG_OF_PERICENTER":97.2313,"MEAN_ANOMALY":262.9271,"EPHEMERIS_TYPE":0,"CLASSIFICATION_TYPE":"U","NORAD_CAT_ID":60536,"ELEMENT_SET_NO":999,"REV_AT_EPOCH":8622,"BSTAR":0.0011611174,"MEAN_MOTION_DOT":0.00018409,"MEAN_MOTION_DDOT":0},{"OBJECT_NAME":"LEMUR-2-AHMED-ASRAR","OBJECT_ID":"2024-149DN","EPOCH":"2026-03-14T16:49:42.180096","MEAN_MOTION":15.10527653,"ECCENTRICITY":0.00012392,"INCLINATION":97.7031,"RA_OF_ASC_NODE":157.984,"ARG_OF_PERICENTER":2.9267,"MEAN_ANOMALY":357.1969,"EPHEMERIS_TYPE":0,"CLASSIFICATION_TYPE":"U","NORAD_CAT_ID":60576,"ELEMENT_SET_NO":999,"REV_AT_EPOCH":8629,"BSTAR":0.0010807856,"MEAN_MOTION_DOT":0.00017782,"MEAN_MOTION_DDOT":0},{"OBJECT_NAME":"LEMUR-2-LLOYD","OBJECT_ID":"2024-149DP","EPOCH":"2026-03-14T16:54:44.186112","MEAN_MOTION":15.07312266,"ECCENTRICITY":0.00051126,"INCLINATION":97.6782,"RA_OF_ASC_NODE":154.9118,"ARG_OF_PERICENTER":113.2327,"MEAN_ANOMALY":246.9439,"EPHEMERIS_TYPE":0,"CLASSIFICATION_TYPE":"U","NORAD_CAT_ID":60577,"ELEMENT_SET_NO":999,"REV_AT_EPOCH":8615,"BSTAR":0.0011088773,"MEAN_MOTION_DOT":0.00016713,"MEAN_MOTION_DDOT":0},{"OBJECT_NAME":"LEMUR-2-SQUIRRELCOMM","OBJECT_ID":"2024-149DQ","EPOCH":"2026-03-14T22:38:20.109984","MEAN_MOTION":15.05975841,"ECCENTRICITY":0.00058386,"INCLINATION":97.6758,"RA_OF_ASC_NODE":155.2252,"ARG_OF_PERICENTER":29.4272,"MEAN_ANOMALY":330.7283,"EPHEMERIS_TYPE":0,"CLASSIFICATION_TYPE":"U","NORAD_CAT_ID":60578,"ELEMENT_SET_NO":999,"REV_AT_EPOCH":8621,"BSTAR":0.00061592595,"MEAN_MOTION_DOT":8.917e-5,"MEAN_MOTION_DDOT":0},{"OBJECT_NAME":"LEMUR-2-SIERRINI","OBJECT_ID":"2024-149DR","EPOCH":"2026-03-14T17:12:04.509504","MEAN_MOTION":15.08824117,"ECCENTRICITY":0.0006568,"INCLINATION":97.6863,"RA_OF_ASC_NODE":156.0372,"ARG_OF_PERICENTER":136.5984,"MEAN_ANOMALY":223.5762,"EPHEMERIS_TYPE":0,"CLASSIFICATION_TYPE":"U","NORAD_CAT_ID":60579,"ELEMENT_SET_NO":999,"REV_AT_EPOCH":8620,"BSTAR":0.001150514,"MEAN_MOTION_DOT":0.00018078,"MEAN_MOTION_DDOT":0},{"OBJECT_NAME":"LEMUR-2-WILSON","OBJECT_ID":"2025-009CP","EPOCH":"2026-03-14T17:15:14.112576","MEAN_MOTION":14.94717561,"ECCENTRICITY":0.0003296,"INCLINATION":97.7071,"RA_OF_ASC_NODE":153.8587,"ARG_OF_PERICENTER":21.7965,"MEAN_ANOMALY":338.3395,"EPHEMERIS_TYPE":0,"CLASSIFICATION_TYPE":"U","NORAD_CAT_ID":62694,"ELEMENT_SET_NO":999,"REV_AT_EPOCH":6324,"BSTAR":0.00029569563,"MEAN_MOTION_DOT":3.154e-5,"MEAN_MOTION_DDOT":0},{"OBJECT_NAME":"LEMUR-2-STAR-FOX","OBJECT_ID":"2025-009CR","EPOCH":"2026-03-14T16:18:12.739104","MEAN_MOTION":15.00990241,"ECCENTRICITY":0.00029961,"INCLINATION":97.7033,"RA_OF_ASC_NODE":156.0798,"ARG_OF_PERICENTER":143.2152,"MEAN_ANOMALY":216.9279,"EPHEMERIS_TYPE":0,"CLASSIFICATION_TYPE":"U","NORAD_CAT_ID":62696,"ELEMENT_SET_NO":999,"REV_AT_EPOCH":6337,"BSTAR":0.0011118463,"MEAN_MOTION_DOT":0.0001415,"MEAN_MOTION_DDOT":0}]
